NORAD_CAT_ID,OBJECT_NAME,OBJECT_TYPE,EPOCH,MEAN_MOTION,ECCENTRICITY,INCLINATION,RA_OF_ASC_NODE,ARG_OF_PERICENTER,MEAN_ANOMALY,BSTAR,MEAN_MOTION_DOT,MEAN_MOTION_DDOT,TLE_LINE0,TLE_LINE1,TLE_LINE2,SEMIMAJOR_AXIS,PERIOD,APOGEE,PERIGEE,DECAYED
51983.0,STARLINK-3655,PAYLOAD,2023-01-13 18:09:33,15.08849995,0.0002299999999999,53.2174,165.8527,72.171,287.9533,9.9806e-05,1.301e-05,0.0,0 STARLINK-3655,1 51983U 22025AD  23013.75663469  .00001301  00000-0  99806-4 0  9993,2 51983  53.2174 165.8527 0002300  72.1710 287.9533 15.08849995 48420,6917.85,95.437,541.306,538.124,0.0
51983.0,STARLINK-3655,PAYLOAD,2023-01-14 19:35:43,15.08840729,0.0002316,53.218,161.0944,76.3208,283.8042,9.1533e-05,1.169e-05,0.0,0 STARLINK-3655,1 51983U 22025AD  23014.81648002  .00001169  00000-0  91533-4 0  9998,2 51983  53.2180 161.0944 0002316  76.3208 283.8042 15.08840729 48586,6917.878000000001,95.438,541.345,538.141,0.0
51983.0,STARLINK-3655,PAYLOAD,2023-01-15 13:04:58,15.08843241,0.0002201,53.2176,157.8242,87.6761,272.4483,3.165e-05,2.15e-06,0.0,0 STARLINK-3655,1 51983U 22025AD  23015.54512117  .00000215  00000-0  31650-4 0  9991,2 51983  53.2176 157.8242 0002201  87.6761 272.4483 15.08843241 47570,6917.87,95.437,541.258,538.2130000000001,0.0
51983.0,STARLINK-3655,PAYLOAD,2023-01-15 17:51:07,15.08850219,0.0002128,53.218,156.9329,71.9249,288.1974,7.1783e-05,8.55e-06,0.0,0 STARLINK-3655,1 51983U 22025AD  23015.74383586  .00000855  00000-0  71783-4 0  9990,2 51983  53.2180 156.9329 0002128  71.9249 288.1974 15.08850219 47602,6917.849,95.437,541.186,538.242,0.0
51983.0,STARLINK-3655,PAYLOAD,2023-01-16 01:48:03,15.08840232,0.0002272,53.2182,155.4439,75.3611,284.7633,7.6297e-05,9.26e-06,0.0,0 STARLINK-3655,1 51983U 22025AD  23016.07504267  .00000926  00000-0  76297-4 0  9992,2 51983  53.2182 155.4439 0002272  75.3611 284.7633 15.08840232 48778,6917.88,95.438,541.316,538.173,0.0
51983.0,STARLINK-3655,PAYLOAD,2023-01-16 14:31:08,15.08847296,0.000243,53.2187,153.0709,73.8936,286.2323,6.823199999999999e-05,7.98e-06,0.0,0 STARLINK-3655,1 51983U 22025AD  23016.60495993  .00000798  00000-0  68232-4 0  9993,2 51983  53.2187 153.0709 0002430  73.8936 286.2323 15.08847296 47731,6917.858,95.437,541.404,538.0419999999999,0.0
51983.0,STARLINK-3655,PAYLOAD,2023-01-16 16:06:31,15.08846979,0.0002271,53.2174,152.7704,77.3212,282.8034,0.00011501,1.543e-05,0.0,0 STARLINK-3655,1 51983U 22025AD  23016.67119934  .00001543  00000-0  11501-3 0  9993,2 51983  53.2174 152.7704 0002271  77.3212 282.8034 15.08846979 47746,6917.859,95.437,541.295,538.153,0.0
51983.0,STARLINK-3655,PAYLOAD,2023-01-17 12:46:33,15.08827095,0.0002251,53.218,148.9083,91.9768,268.1482,-0.00012865,-2.335e-05,0.0,0 STARLINK-3655,1 51983U 22025AD  23017.53233505 -.00002335  00000-0 -12865-3 0  9996,2 51983  53.2180 148.9083 0002251  91.9768 268.1482 15.08827095 48996,6917.92,95.438,541.342,538.2280000000001,0.0
51983.0,STARLINK-3655,PAYLOAD,2023-01-17 17:32:42,15.08831188,0.0002164,53.2162,148.0152,87.5049,272.6191,-5.8814e-05,-1.224e-05,0.0,0 STARLINK-3655,1 51983U 22025AD  23017.73105242 -.00001224  00000-0 -58814-4 0  9995,2 51983  53.2162 148.0152 0002164  87.5049 272.6191 15.08831188 47905,6917.906999999999,95.438,541.269,538.275,0.0
51983.0,STARLINK-3655,PAYLOAD,2023-01-18 07:51:10,15.08848883,0.0001961,53.217,145.3376,92.6371,267.4846,0.00024612,3.632e-05,0.0,0 STARLINK-3655,1 51983U 22025AD  23018.32720338  .00003632  00000-0  24612-3 0  9991,2 51983  53.2170 145.3376 0001961  92.6371 267.4846 15.08848883 49115,6917.853,95.437,541.075,538.362,0.0
51983.0,STARLINK-3655,PAYLOAD,2023-01-18 14:12:41,15.08878323,0.0001795,53.2176,144.1461,102.3719,257.7474,0.00056288,8.691e-05,0.0,0 STARLINK-3655,1 51983U 22025AD  23018.59214587  .00008691  00000-0  56288-3 0  9998,2 51983  53.2176 144.1461 0001795 102.3719 257.7474 15.08878323 48034,6917.763000000001,95.435,540.87,538.387,0.0
51983.0,STARLINK-3655,PAYLOAD,2023-01-19 07:41:57,15.08836279,0.0001809,53.2171,140.8773,99.8545,260.2652,0.00015214,2.134e-05,0.0,0 STARLINK-3655,1 51983U 22025AD  23019.32080550  .00002134  00000-0  15214-3 0  9991,2 51983  53.2171 140.8773 0001809  99.8545 260.2652 15.08836279 49268,6917.892,95.438,541.008,538.505,0.0
51983.0,STARLINK-3655,PAYLOAD,2023-01-20 07:32:44,15.08842519,0.0001173,53.2159,136.4129,111.9653,248.1464,-0.00032161,-5.403e-05,0.0,0 STARLINK-3655,1 51983U 22025AD  23020.31440560 -.00005403  00000-0 -32161-3 0  9997,2 51983  53.2159 136.4129 0001173 111.9653 248.1464 15.08842519 48292,6917.8730000000005,95.437,540.549,538.9259999999999,0.0
51983.0,STARLINK-3655,PAYLOAD,2023-01-20 13:54:16,15.08853506,0.0001673,53.2176,135.2273,90.0691,270.0493,-5.4641e-05,-1.158e-05,0.0,0 STARLINK-3655,1 51983U 22025AD  23020.57935928 -.00001158  00000-0 -54641-4 0  9993,2 51983  53.2176 135.2273 0001673  90.0691 270.0493 15.08853506 49455,6917.839,95.437,540.861,538.547,0.0
51983.0,STARLINK-3655,PAYLOAD,2023-01-21 10:34:17,15.08846508,0.0001802,53.216,131.3584,112.7228,247.3954,0.00020888,3.038e-05,0.0,0 STARLINK-3655,1 51983U 22025AD  23021.44047757  .00003038  00000-0  20888-3 0  9996,2 51983  53.2160 131.3584 0001802 112.7228 247.3954 15.08846508 49589,6917.86,95.437,540.972,538.479,0.0
51983.0,STARLINK-3655,PAYLOAD,2023-01-21 16:55:46,15.08915235,0.0001408,53.2178,130.1702,95.8203,264.295,0.0013296,0.0002098,0.0,0 STARLINK-3655,1 51983U 22025AD  23021.70540395  .00020980  00000-0  13296-2 0  9990,2 51983  53.2178 130.1702 0001408  95.8203 264.2950 15.08915235 49626,6917.65,95.433,540.489,538.5409999999999,0.0
51983.0,STARLINK-3655,PAYLOAD,2023-01-22 13:35:50,15.08823806,0.000128,53.2192,126.3085,94.6133,265.5006,-0.00056809,-9.314e-05,0.0,0 STARLINK-3655,1 51983U 22025AD  23022.56655388 -.00009314  00000-0 -56809-3 0  9992,2 51983  53.2192 126.3085 0001280  94.6133 265.5006 15.08823806 49752,6917.93,95.439,540.68,538.909,0.0
51983.0,STARLINK-3655,PAYLOAD,2023-01-23 07:05:05,15.08832678,0.0001186,53.2181,123.0356,102.2231,257.8894,-0.00055409,-9.093e-05,0.0,0 STARLINK-3655,1 51983U 22025AD  23023.29519797 -.00009093  00000-0 -55409-3 0  9995,2 51983  53.2181 123.0356 0001186 102.2231 257.8894 15.08832678 49863,6917.903,95.438,540.5880000000001,538.947,0.0
51983.0,STARLINK-3655,PAYLOAD,2023-01-24 13:17:26,15.08841618,0.0001305,53.2176,117.3862,104.1391,255.9746,0.00062727,9.71e-05,0.0,0 STARLINK-3655,1 51983U 22025AD  23024.55377501  .00009710  00000-0  62727-3 0  9995,2 51983  53.2176 117.3862 0001305 104.1391 255.9746 15.08841618 50058,6917.875,95.437,540.643,538.8380000000001,0.0
51983.0,STARLINK-3655,PAYLOAD,2023-01-25 06:46:41,15.08832876,0.0001222,53.2168,114.116,111.2209,248.8913,0.00038663,5.869e-05,0.0,0 STARLINK-3655,1 51983U 22025AD  23025.28242045  .00005869  00000-0  38663-3 0  9993,2 51983  53.2168 114.1160 0001222 111.2209 248.8913 15.08832876 50165,6917.901999999999,95.438,540.613,538.922,0.0
51983.0,STARLINK-3655,PAYLOAD,2023-01-25 13:08:13,15.08841246,0.0001224,53.2171,112.9263,104.2525,255.8603,0.00050539,7.765e-05,0.0,0 STARLINK-3655,1 51983U 22025AD  23025.54738060  .00007765  00000-0  50539-3 0  9992,2 51983  53.2171 112.9263 0001224 104.2525 255.8603 15.08841246 49088,6917.877,95.437,540.5880000000001,538.895,0.0
51983.0,STARLINK-3655,PAYLOAD,2023-01-25 14:43:36,15.08842572,0.0001165,53.2169,112.6289,104.1599,255.9522,0.0007442,0.00011577,0.0,0 STARLINK-3655,1 51983U 22025AD  23025.61362134  .00011577  00000-0  74420-3 0  9996,2 51983  53.2169 112.6289 0001165 104.1599 255.9522 15.08842572 49099,6917.8730000000005,95.437,540.543,538.932,0.0
51983.0,STARLINK-3655,PAYLOAD,2023-01-26 12:59:00,15.08855175,0.0001261,53.2173,108.4657,92.7515,267.3622,0.00060904,9.422e-05,0.0,0 STARLINK-3655,1 51983U 22025AD  23026.54097780  .00009422  00000-0  60904-3 0  9999,2 51983  53.2173 108.4657 0001261  92.7515 267.3622 15.08855175 49230,6917.834,95.437,540.571,538.827,0.0
51983.0,STARLINK-3655,PAYLOAD,2023-01-27 04:52:51,15.08848516,0.0001184,53.2159,105.495,87.4862,272.6266,0.00011297,1.511e-05,0.0,0 STARLINK-3655,1 51983U 22025AD  23027.20337534  .00001511  00000-0  11297-3 0  9999,2 51983  53.2159 105.4950 0001184  87.4862 272.6266 15.08848516 50457,6917.854,95.437,540.538,538.9,0.0
51983.0,STARLINK-3655,PAYLOAD,2023-01-27 12:49:47,15.08848441,0.0001264,53.2166,104.0086,89.1504,270.9633,0.00015402,2.165e-05,0.0,0 STARLINK-3655,1 51983U 22025AD  23027.53457437  .00002165  00000-0  15402-3 0  9998,2 51983  53.2166 104.0086 0001264  89.1504 270.9633 15.08848441 49387,6917.855,95.437,540.594,538.845,0.0
51983.0,STARLINK-3655,PAYLOAD,2023-01-28 04:43:39,15.0884,0.0001474,53.2178,101.0327,87.2456,272.8704,3.0536000000000003e-06,-2.39e-06,0.0,0 STARLINK-3655,1 51983U 22025AD  23028.19697923 -.00000239  00000-0  30536-5 0  9995,2 51983  53.2178 101.0327 0001474  87.2456 272.8704 15.08840000 50603,6917.88,95.438,540.765,538.726,0.0
51983.0,STARLINK-3655,PAYLOAD,2023-01-28 09:29:48,15.08836751,0.0001566,53.2166,100.1429,75.071,285.0455,-2.4884e-05,-6.84e-06,0.0,0 STARLINK-3655,1 51983U 22025AD  23028.39570132 -.00000684  00000-0 -24884-4 0  9992,2 51983  53.2166 100.1429 0001566  75.0710 285.0455 15.08836751 49518,6917.89,95.438,540.839,538.672,0.0
51983.0,STARLINK-3655,PAYLOAD,2023-01-28 15:51:20,15.08850865,0.0001185,53.2191,98.9477,76.6182,283.4943,0.00011618,1.562e-05,0.0,0 STARLINK-3655,1 51983U 22025AD  23028.66065299  .00001562  00000-0  11618-3 0  9999,2 51983  53.2191  98.9477 0001185  76.6182 283.4943 15.08850865 50675,6917.847,95.437,540.532,538.892,0.0
51983.0,STARLINK-3655,PAYLOAD,2023-01-28 22:12:53,15.08838926,7.64e-05,53.2195,97.7608,104.4559,255.6518,4.96e-06,-2.09e-06,0.0,0 STARLINK-3655,1 51983U 22025AD  23028.92561708 -.00000209  00000-0  49600-5 0  9996,2 51983  53.2195  97.7608 0000764 104.4559 255.6518 15.08838926 50710,6917.884,95.438,540.277,539.22,0.0
